{
  "type": "FeatureCollection",
  "features": [
    {
      "type": "Feature",
      "properties": {
        "norad_id": 35152,
        "name": "FENGYUN 1C DEB",
        "group": "fengyun-1c-debris",
        "lat": -60.72040133398835,
        "lon": -19.714266423407285,
        "alt_km": 1032.6147816548528,
        "timestamp": "2025-12-21T07:34:34.803236+00:00",
        "meta_object_name": "FENGYUN 1C DEB",
        "meta_object_id": "1999-025DMG",
        "meta_epoch": "2025-12-16T18:13:57.032832",
        "meta_mean_motion": 13.7643783,
        "meta_eccentricity": 0.01945259,
        "meta_inclination": 99.8194,
        "meta_ra_of_asc_node": 173.5777,
        "meta_arg_of_pericenter": 5.0809,
        "meta_mean_anomaly": 355.2255,
        "meta_ephemeris_type": 0,
        "meta_classification_type": "U",
        "meta_norad_cat_id": 35152,
        "meta_element_set_no": 999,
        "meta_rev_at_epoch": 62248,
        "meta_bstar": 0.00057948786,
        "meta_mean_motion_dot": 6.03e-06,
        "meta_mean_motion_ddot": 0,
        "tle_line1": "1 35152U 99025DMG 25350.75968788  .00000603  00000+0  57949-3 0  9999",
        "tle_line2": "2 35152  99.8194 173.5777 0194525   5.0809 355.2255 13.76437830622484"
      },
      "geometry": {
        "type": "Point",
        "coordinates": [
          -19.714266423407285,
          -60.72040133398835
        ]
      }
    },
    {
      "type": "Feature",
      "properties": {
        "norad_id": 35153,
        "name": "FENGYUN 1C DEB",
        "group": "fengyun-1c-debris",
        "lat": -43.15886604028362,
        "lon": 59.502029963155806,
        "alt_km": 772.7839587259559,
        "timestamp": "2025-12-21T07:34:34.803245+00:00",
        "meta_object_name": "FENGYUN 1C DEB",
        "meta_object_id": "1999-025DMH",
        "meta_epoch": "2025-12-19T10:34:45.868224",
        "meta_mean_motion": 14.73770698,
        "meta_eccentricity": 0.0171031,
        "meta_inclination": 98.9028,
        "meta_ra_of_asc_node": 245.897,
        "meta_arg_of_pericenter": 62.3751,
        "meta_mean_anomaly": 299.4702,
        "meta_ephemeris_type": 0,
        "meta_classification_type": "U",
        "meta_norad_cat_id": 35153,
        "meta_element_set_no": 999,
        "meta_rev_at_epoch": 97316,
        "meta_bstar": 0.00026595,
        "meta_mean_motion_dot": 2.127e-05,
        "meta_mean_motion_ddot": 0,
        "tle_line1": "1 35153U 99025DMH 25353.44080866  .00002127  00000+0  26595-3 0  9997",
        "tle_line2": "2 35153  98.9028 245.8970 0171031  62.3751 299.4702 14.73770698973168"
      },
      "geometry": {
        "type": "Point",
        "coordinates": [
          59.502029963155806,
          -43.15886604028362
        ]
      }
    },
    {
      "type": "Feature",
      "properties": {
        "norad_id": 35154,
        "name": "FENGYUN 1C DEB",
        "group": "fengyun-1c-debris",
        "lat": -79.2120400813898,
        "lon": 177.96329406929163,
        "alt_km": 863.3837389653991,
        "timestamp": "2025-12-21T07:34:34.803255+00:00",
        "meta_object_name": "FENGYUN 1C DEB",
        "meta_object_id": "1999-025DMJ",
        "meta_epoch": "2025-12-20T01:30:23.556960",
        "meta_mean_motion": 14.18907429,
        "meta_eccentricity": 0.01791003,
        "meta_inclination": 99.422,
        "meta_ra_of_asc_node": 116.0038,
        "meta_arg_of_pericenter": 21.8945,
        "meta_mean_anomaly": 338.9761,
        "meta_ephemeris_type": 0,
        "meta_classification_type": "U",
        "meta_norad_cat_id": 35154,
        "meta_element_set_no": 999,
        "meta_rev_at_epoch": 64681,
        "meta_bstar": 0.00019694709,
        "meta_mean_motion_dot": 4.3e-06,
        "meta_mean_motion_ddot": 0,
        "tle_line1": "1 35154U 99025DMJ 25354.06277265  .00000430  00000+0  19695-3 0  9996",
        "tle_line2": "2 35154  99.4220 116.0038 0179100  21.8945 338.9761 14.18907429646819"
      },
      "geometry": {
        "type": "Point",
        "coordinates": [
          177.96329406929163,
          -79.2120400813898
        ]
      }
    },
    {
      "type": "Feature",
      "properties": {
        "norad_id": 35155,
        "name": "FENGYUN 1C DEB",
        "group": "fengyun-1c-debris",
        "lat": 48.61778926051762,
        "lon": -3.134788601065771,
        "alt_km": 804.4564575591357,
        "timestamp": "2025-12-21T07:34:34.803264+00:00",
        "meta_object_name": "FENGYUN 1C DEB",
        "meta_object_id": "1999-025DMK",
        "meta_epoch": "2025-12-13T11:32:29.448096",
        "meta_mean_motion": 14.19285709,
        "meta_eccentricity": 0.00260991,
        "meta_inclination": 98.5012,
        "meta_ra_of_asc_node": 359.121,
        "meta_arg_of_pericenter": 70.7543,
        "meta_mean_anomaly": 289.6454,
        "meta_ephemeris_type": 0,
        "meta_classification_type": "U",
        "meta_norad_cat_id": 35155,
        "meta_element_set_no": 999,
        "meta_rev_at_epoch": 72724,
        "meta_bstar": 0.00090034288,
        "meta_mean_motion_dot": 1.854e-05,
        "meta_mean_motion_ddot": 0,
        "tle_line1": "1 35155U 99025DMK 25347.48089639  .00001854  00000+0  90034-3 0  9998",
        "tle_line2": "2 35155  98.5012 359.1210 0026099  70.7543 289.6454 14.19285709727245"
      },
      "geometry": {
        "type": "Point",
        "coordinates": [
          -3.134788601065771,
          48.61778926051762
        ]
      }
    },
    {
      "type": "Feature",
      "properties": {
        "norad_id": 35156,
        "name": "FENGYUN 1C DEB",
        "group": "fengyun-1c-debris",
        "lat": -42.54800963056336,
        "lon": 153.38276743970894,
        "alt_km": 867.8001495576991,
        "timestamp": "2025-12-21T07:34:34.803273+00:00",
        "meta_object_name": "FENGYUN 1C DEB",
        "meta_object_id": "1999-025DML",
        "meta_epoch": "2025-12-12T16:32:42.860544",
        "meta_mean_motion": 14.10626157,
        "meta_eccentricity": 0.00370025,
        "meta_inclination": 98.7527,
        "meta_ra_of_asc_node": 333.1123,
        "meta_arg_of_pericenter": 148.5895,
        "meta_mean_anomaly": 211.7497,
        "meta_ephemeris_type": 0,
        "meta_classification_type": "U",
        "meta_norad_cat_id": 35156,
        "meta_element_set_no": 999,
        "meta_rev_at_epoch": 64043,
        "meta_bstar": 0.00049181464,
        "meta_mean_motion_dot": 8.41e-06,
        "meta_mean_motion_ddot": 0,
        "tle_line1": "1 35156U 99025DML 25346.68938496  .00000841  00000+0  49181-3 0  9996",
        "tle_line2": "2 35156  98.7527 333.1123 0037002 148.5895 211.7497 14.10626157640439"
      },
      "geometry": {
        "type": "Point",
        "coordinates": [
          153.38276743970894,
          -42.54800963056336
        ]
      }
    },
    {
      "type": "Feature",
      "properties": {
        "norad_id": 35159,
        "name": "FENGYUN 1C DEB",
        "group": "fengyun-1c-debris",
        "lat": -70.44050589262442,
        "lon": -135.10988701984508,
        "alt_km": 750.4735212571013,
        "timestamp": "2025-12-21T07:34:34.803282+00:00",
        "meta_object_name": "FENGYUN 1C DEB",
        "meta_object_id": "1999-025DMP",
        "meta_epoch": "2025-12-18T03:56:12.547968",
        "meta_mean_motion": 14.45218567,
        "meta_eccentricity": 0.00125233,
        "meta_inclination": 98.8399,
        "meta_ra_of_asc_node": 67.5884,
        "meta_arg_of_pericenter": 158.7222,
        "meta_mean_anomaly": 265.4799,
        "meta_ephemeris_type": 0,
        "meta_classification_type": "U",
        "meta_norad_cat_id": 35159,
        "meta_element_set_no": 999,
        "meta_rev_at_epoch": 61559,
        "meta_bstar": 0.0014431144,
        "meta_mean_motion_dot": 5.018e-05,
        "meta_mean_motion_ddot": 0,
        "tle_line1": "1 35159U 99025DMP 25352.16403412  .00005018  00000+0  14431-2 0  9994",
        "tle_line2": "2 35159  98.8399  67.5884 0012523 158.7222 265.4799 14.45218567615590"
      },
      "geometry": {
        "type": "Point",
        "coordinates": [
          -135.10988701984508,
          -70.44050589262442
        ]
      }
    },
    {
      "type": "Feature",
      "properties": {
        "norad_id": 35160,
        "name": "FENGYUN 1C DEB",
        "group": "fengyun-1c-debris",
        "lat": 47.359271336689524,
        "lon": 100.1915687210447,
        "alt_km": 889.6234639802369,
        "timestamp": "2025-12-21T07:34:34.803291+00:00",
        "meta_object_name": "FENGYUN 1C DEB",
        "meta_object_id": "1999-025DMQ",
        "meta_epoch": "2025-12-16T13:37:44.190912",
        "meta_mean_motion": 14.35976797,
        "meta_eccentricity": 0.01760845,
        "meta_inclination": 99.155,
        "meta_ra_of_asc_node": 105.2355,
        "meta_arg_of_pericenter": 228.1924,
        "meta_mean_anomaly": 130.4106,
        "meta_ephemeris_type": 0,
        "meta_classification_type": "U",
        "meta_norad_cat_id": 35160,
        "meta_element_set_no": 999,
        "meta_rev_at_epoch": 64986,
        "meta_bstar": 0.00041002814,
        "meta_mean_motion_dot": 1.364e-05,
        "meta_mean_motion_ddot": 0,
        "tle_line1": "1 35160U 99025DMQ 25350.56787258  .00001364  00000+0  41003-3 0  9997",
        "tle_line2": "2 35160  99.1550 105.2355 0176084 228.1924 130.4106 14.35976797649867"
      },
      "geometry": {
        "type": "Point",
        "coordinates": [
          100.1915687210447,
          47.359271336689524
        ]
      }
    }
  ]
}